LEDSAT                  
1 49069U 21073D   24211.16414733  .00018200  00000+0  69576-3 0  9996
2 49069  97.4353 282.0551 0019744 134.6677 225.6175 15.26471888162853
ROBUSTA-1F (MTCUBE 2)   
1 53109U 22080E   24210.33811403 -.00000003  00000+0  00000+0 0  9994
2 53109  70.1205 177.8135 0007692  78.9048 281.2476  6.42584412 47802
SITRO-AIS 5 (KATYS)     
1 57176U 23091L   24211.53367370  .00008398  00000+0  52891-3 0  9990
2 57176  97.6104 263.3689 0016323 342.1690  17.8964 15.09311434 59888
SITRO-AIS 6 (CHIRKIN)   
1 57192U 23091AC  24211.51718037  .00007980  00000+0  50209-3 0  9993
2 57192  97.6095 263.3800 0016194 341.3687  18.6947 15.09366113 59887
SITRO-AIS 8 (ANOKHIN)   
1 57193U 23091AD  24211.47541962  .00009043  00000+0  56253-3 0  9997
2 57193  97.6100 263.4264 0015890 343.0809  16.9888 15.09747268 59886
SITRO-AIS 7 (FARTUSHNIY)
1 57194U 23091AE  24211.45719375  .00007807  00000+0  49197-3 0  9996
2 57194  97.6097 263.2988 0016057 342.6386  17.4292 15.09316424 59874
SITRO-AIS 10 (BURDAEV)  
1 57199U 23091AK  24211.52672312  .00009588  00000+0  56712-3 0  9997
2 57199  97.6112 264.5067 0010815 331.0638  28.9991 15.11621771 59956
SITRO-AIS 9 (SHCHUKIN)  
1 57201U 23091AM  24211.45934121  .00009003  00000+0  53312-3 0  9997
2 57201  97.6107 264.4166 0010775 331.2048  28.8586 15.11598293 59945
SITRO-AIS 12 (SMIRENNIY)
1 57204U 23091AQ  24211.48266030  .00010081  00000+0  59319-3 0  9991
2 57204  97.6119 264.5877 0010606 324.6808  35.3718 15.11795294 59955
SITRO-AIS 11 (SHEFFER)  
1 57208U 23091AU  24211.46594720  .00009745  00000+0  57217-3 0  9993
2 57208  97.6115 264.5980 0010424 325.1811  34.8736 15.11884820 59956
ROBUSTA-1E (ENSO)       
1 58470U 23185J   24211.48497404  .00018647  00000+0  75042-3 0  9999
2 58470  97.4240 277.7996 0013491 129.1088 231.1351 15.24851609 36585
SITRO-AIS 29            
1 59052U 24039B   24211.50661196  .00027490  00000+0  94146-3 0  9991
2 59052  97.3930 173.2281 0019598  72.6318 287.7063 15.29999789 23069
SITRO-AIS 30            
1 59053U 24039C   24211.50789853  .00026502  00000+0  91003-3 0  9995
2 59053  97.3928 173.2218 0019722  73.1459 287.1942 15.29918417 23056
SITRO-AIS 31            
1 59054U 24039D   24211.49739999  .00025940  00000+0  88686-3 0  9998
2 59054  97.3929 173.2365 0019615  73.1720 287.1670 15.30066410 23072
SITRO-AIS 33            
1 59055U 24039E   24211.55101914  .00026813  00000+0  91241-3 0  9997
2 59055  97.3933 173.3237 0019376  73.6511 286.6858 15.30216485 23075
SITRO-AIS 35            
1 59056U 24039F   24211.54686583  .00028936  00000+0  98348-3 0  9990
2 59056  97.3931 173.3259 0019171  73.9782 286.3569 15.30244305 23072
SITRO-AIS 32            
1 59057U 24039G   24211.49125853  .00025797  00000+0  88154-3 0  9999
2 59057  97.3933 173.2499 0019231  74.2618 286.0742 15.30091486 23068
SITRO-AIS 34            
1 59058U 24039H   24211.55160272  .00026286  00000+0  89577-3 0  9995
2 59058  97.3933 173.3244 0019395  73.8772 286.4602 15.30173343 23078
SITRO-AIS 36            
1 59059U 24039J   24211.54076094  .00025484  00000+0  86553-3 0  9993
2 59059  97.3930 173.3344 0018949  74.1459 286.1869 15.30297935 23073
SITRO-AIS 49            
1 59060U 24039K   24211.54193372  .00025400  00000+0  86415-3 0  9999
2 59060  97.3931 173.3330 0018959  73.6668 286.6656 15.30242590 23074
SITRO-AIS 50            
1 59061U 24039L   24211.52907146  .00027224  00000+0  92046-3 0  9993
2 59061  97.3929 173.3485 0018854  73.9367 286.3949 15.30431711 23073
SITRO-AIS 51            
1 59062U 24039M   24211.52894988  .00026224  00000+0  88721-3 0  9997
2 59062  97.3929 173.3495 0018859  73.7256 286.6057 15.30418620 23072
SITRO-AIS 52            
1 59063U 24039N   24211.52037268  .00027102  00000+0  91334-3 0  9998
2 59063  97.3931 173.3623 0018733  73.8661 286.4640 15.30541245 23077
SITRO-AIS 25            
1 59066U 24039R   24211.51262088  .00004576  00000+0  43578-3 0  9997
2 59066  95.4006 126.0408 0169724 196.6626 162.8978 14.83345182 22383
SITRO-AIS 26            
1 59067U 24039S   24211.51305942  .00004606  00000+0  43912-3 0  9991
2 59067  95.4006 126.0395 0169654 196.6979 162.8616 14.83310058 22385
SITRO-AIS 27            
1 59068U 24039T   24211.49903308  .00004388  00000+0  41698-3 0  9995
2 59068  95.4008 126.0564 0169257 196.5387 163.0273 14.83486411 22386
SITRO-AIS 28            
1 59071U 24039U   24211.49529121  .00004212  00000+0  40014-3 0  9993
2 59071  95.4009 126.0612 0169092 196.5168 163.0505 14.83529616 22382
GRBBETA                 
1 60237U 24128C   24211.50158032  .00004670  00000+0  41977-3 0  9996
2 60237  61.9946  93.6574 0010691 295.1013  64.8965 14.97012604  2933
OOV-CUBE                
1 60240U 24128F   24211.17470523  .00003359  00000+0  31134-3 0  9992
2 60240  61.9980  94.8565 0010266 277.7903  82.2019 14.96427821  2899
ROBUSTA-3A (MEDITERRAN*)
1 60243U 24128J   24211.18247850  .00006064  00000+0  55500-3 0  9990
2 60243  61.9921  94.8714 0012711 266.5362  93.4271 14.95908573  2896
BEIJING 1               
1 28890U 05043A   24211.58068834  .00000724  00000+0  15240-3 0  9998
2 28890  98.2048 334.1415 0013616 274.0030  85.9615 14.62417625    95
HUANJING 1A (HJ-1A)     
1 33320U 08041A   24211.55248475  .00002475  00000+0  33138-3 0  9992
2 33320  97.6318 216.4791 0018967 229.5940 130.3618 14.80181586856620
HUANJING 1B (HJ-1B)     
1 33321U 08041B   24211.48103711  .00001774  00000+0  23616-3 0  9999
2 33321  97.6267 220.9404 0036611 278.1352  81.5708 14.80427995856633
YAOGAN-4                
1 33446U 08061A   24211.21426832  .00002112  00000+0  28547-3 0  9997
2 33446  97.8790 142.3018 0015905 144.1210 216.1073 14.79991296843770
DEIMOS-1                
1 35681U 09041A   24211.50493407  .00001157  00000+0  18554-3 0  9998
2 35681  97.6818  31.1632 0000478 166.2349 193.8873 14.73431800805542
UK-DMC 2                
1 35683U 09041C   24211.51212095  .00001690  00000+0  26760-3 0  9993
2 35683  97.7866 357.4296 0001210  83.6453 276.4893 14.73473961805242
DMC3-FM1                
1 40715U 15032A   24211.51578427  .00001307  00000+0  16401-3 0  9992
2 40715  97.7444  89.1815 0006519 142.3254 217.8418 14.83802932487851
DMC3-FM2                
1 40716U 15032B   24211.47101828  .00001290  00000+0  16191-3 0  9992
2 40716  97.7497  90.2359 0008292 149.3141 210.8560 14.83809967487843
DMC3-FM3                
1 40717U 15032C   24211.49816887  .00001273  00000+0  16012-3 0  9996
2 40717  97.7546  91.5581 0009803 148.1009 212.0801 14.83717564487853
NOAA 15                 
1 25338U 98030A   24211.52840186  .00000409  00000+0  18697-3 0  9991
2 25338  98.5672 237.7685 0010021 194.4497 165.6398 14.26641809363472
DMSP 5D-3 F16 (USA 172) 
1 28054U 03048A   24211.48161242  .00000226  00000+0  14300-3 0  9992
2 28054  99.0214 218.3474 0006297 298.2834 217.6335 14.14058788 72254
NOAA 18                 
1 28654U 05018A   24211.47469807  .00000327  00000+0  19785-3 0  9998
2 28654  98.8732 288.0875 0013228 305.6422  54.3518 14.13265232989236
METEOSAT-9 (MSG-2)      
1 28912U 05049B   24211.16825437  .00000117  00000+0  00000+0 0  9993
2 28912   7.7804  60.5130 0000530 357.1970 355.8027  1.00271507 68170
EWS-G1 (GOES 13)        
1 29155U 06018A   24208.76299578  .00000081  00000+0  00000+0 0  9993
2 29155   2.7265  84.8457 0075842 255.8386 300.4914  0.99029446 36424
DMSP 5D-3 F17 (USA 191) 
1 29522U 06050A   24211.48660732  .00000254  00000+0  15516-3 0  9998
2 29522  98.7441 221.1901 0009352 213.6682 146.3898 14.14510277915172
FENGYUN 3A              
1 32958U 08026A   24211.40698212  .00000260  00000+0  14486-3 0  9998
2 32958  98.6055 157.3105 0007900 317.4490  42.6074 14.19131986837945
NOAA 19                 
1 33591U 09005A   24211.50296762  .00000341  00000+0  20675-3 0  9992
2 33591  99.0446 267.7451 0014119 168.9995 191.1488 14.13059565797600
GOES 14                 
1 35491U 09033A   24211.24107438 -.00000070  00000+0  00000+0 0  9992
2 35491   0.4348 100.1978 0003570  23.2655 162.2223  1.00271806 55257
DMSP 5D-3 F18 (USA 210) 
1 35951U 09057A   24211.50338141  .00000523  00000+0  29730-3 0  9992
2 35951  98.8165 186.2904 0012184  50.4513 309.7734 14.14182705762344
EWS-G2 (GOES 15)        
1 36411U 10008A   24210.88510509  .00000035  00000+0  00000+0 0  9995
2 36411   0.5052 274.5116 0005247 284.6782 127.7459  1.00277219 52742
COMS 1                  
1 36744U 10032A   24210.89841956 -.00000350  00000+0  00000+0 0  9996
2 36744   3.0495  83.9126 0000746  57.4916 257.1870  1.00271325 44183
FENGYUN 3B              
1 37214U 10059A   24211.59583089  .00000170  00000+0  11235-3 0  9991
2 37214  99.0534 240.2768 0021676 335.4664 176.1145 14.14527929710244
SUOMI NPP               
1 37849U 11061A   24211.54508129  .00000169  00000+0  10101-3 0  9995
2 37849  98.7222 148.8902 0001803 108.7029 251.4343 14.19536595660871
FENGYUN 2F              
1 38049U 12002A   24210.86585218 -.00000363  00000+0  00000+0 0  9992
2 38049   5.6947  72.7172 0002196 129.2621 168.5696  1.00261174 45972
METEOSAT-10 (MSG-3)     
1 38552U 12035B   24210.87292194 -.00000011  00000+0  00000+0 0  9996
2 38552   3.0571  61.2686 0000350 201.6233 358.4269  1.00273984 44318
METOP-B                 
1 38771U 12049A   24211.47767722  .00000246  00000+0  13229-3 0  9995
2 38771  98.6254 267.7453 0001042  82.2922 277.8374 14.21457975615553
INSAT-3D                
1 39216U 13038B   24210.75085981 -.00000357  00000+0  00000+0 0  9992
2 39216   0.1392  95.2910 0001357  98.9679 140.3476  1.00559523 40175
FENGYUN 3C              
1 39260U 13052A   24211.55703320  .00000210  00000+0  12654-3 0  9999
2 39260  98.4300 208.9204 0010567 198.7719 161.3068 14.16238130561323
